FLOCK 3P-80             
1 42026U 17008CG  17113.92503181  .00011858  00000-0  51507-3 0  9996
2 42026  97.5033 175.4427 0008976  39.3781 320.8106 15.22424056  8261
FLOCK 3P-66             
1 42027U 17008CH  17113.85665799  .00006658  00000-0  29254-3 0  9999
2 42027  97.5016 175.3594 0009609  50.1202 310.0877 15.22206457 10228
FLOCK 3P-65             
1 42028U 17008CJ  17113.92192734  .00006879  00000-0  30171-3 0  9997
2 42028  97.5014 175.4259 0009526  50.0014 310.2057 15.22255950 10138
FLOCK 3P-50             
1 42029U 17008CK  17113.91884556  .00004033  00000-0  17813-3 0  9995
2 42029  97.5017 175.4309 0009503  52.0984 308.1110 15.22274055  9457
FLOCK 3P-52             
1 42030U 17008CL  17113.92000151  .00006924  00000-0  30355-3 0  9996
2 42030  97.5013 175.4269 0009435  50.8881 309.3192 15.22270049 10225
FLOCK 3P-46             
1 42031U 17008CM  17113.91757009  .00004450  00000-0  19626-3 0  9997
2 42031  97.5011 175.4287 0009414  52.2852 307.9236 15.22270933 10286
FLOCK 3P-47             
1 42032U 17008CN  17113.91702790  .00004023  00000-0  17752-3 0  9999
2 42032  97.5012 175.4297 0009404  52.2967 307.9120 15.22308186 10100
FLOCK 3P-44             
1 42033U 17008CP  17113.91405294  .00004434  00000-0  19504-3 0  9992
2 42033  97.5013 175.4336 0009389  54.1723 306.0384 15.22360008  8851
FLOCK 3P-64             
1 42034U 17008CQ  17113.91335747  .00004765  00000-0  20946-3 0  9997
2 42034  97.5009 175.4320 0009285  54.1755 306.0342 15.22345345 10270
FLOCK 3P-63             
1 42035U 17008CR  17113.91289817  .00004080  00000-0  17971-3 0  9998
2 42035  97.5008 175.4314 0009316  54.5058 305.7046 15.22367754  8247
FLOCK 3P-62             
1 42036U 17008CS  17113.91132596  .00004205  00000-0  18477-3 0  9991
2 42036  97.5009 175.4345 0009251  55.5582 304.6527 15.22432147  9448
FLOCK 3P-38             
1 42037U 17008CT  17113.91132698  .00005121  00000-0  22450-3 0  9999
2 42037  97.5008 175.4334 0009086  55.4238 304.7854 15.22402632 10227
FLOCK 3P-39             
1 42038U 17008CU  17113.91120246  .00005193  00000-0  22756-3 0  9994
2 42038  97.5006 175.4316 0009260  54.9917 305.2187 15.22410874 10174
FLOCK 3P-15             
1 42039U 17008CV  17113.91120561  .00004323  00000-0  19022-3 0  9991
2 42039  97.5008 175.4339 0009134  54.9486 305.2605 15.22368265  9453
FLOCK 3P-13             
1 42040U 17008CW  17113.90987318  .00004122  00000-0  18118-3 0  9995
2 42040  97.5010 175.4360 0009080  55.7151 304.4944 15.22431982  9443
FLOCK 3P 55             
1 42041U 17008CX  17113.90328500  .00004791  00000-0  20898-3 0  9998
2 42041  97.5009 175.4434 0008941  59.7067 300.5053 15.22611947 10282
FLOCK 3P-56             
1 42042U 17008CY  17113.90373271  .00004403  00000-0  19250-3 0  9994
2 42042  97.5006 175.4393 0008918  58.3323 301.8782 15.22580232 10070
FLOCK 3P-81             
1 42043U 17008CZ  17113.86283923  .00012313  00000-0  53821-3 0  9995
2 42043  97.5035 175.3742 0009217  39.7830 320.4080 15.22197465  9459
FLOCK 3P-87             
1 42044U 17008DA  17113.93361661  .00016072  00000-0  70415-3 0  9994
2 42044  97.5032 175.4311 0009210  36.7315 323.4551 15.22056011  9613
FLOCK 3P-29             
1 42045U 17008DB  17113.80227016  .00015506  00000-0  68056-3 0  9995
2 42045  97.5015 175.2791 0008829  35.6189 324.5635 15.22005043  9442
FLOCK 3P-82             
1 42046U 17008DC  17113.73675069  .00010681  00000-0  46998-3 0  9993
2 42046  97.5034 175.2352 0009380  37.7454 322.4438 15.22007547  9481
FLOCK 3P-78             
1 42047U 17008DD  17113.73587266  .00009458  00000-0  41581-3 0  9998
2 42047  97.5034 175.2369 0009226  37.5415 322.6464 15.22072073  9414
FLOCK 3P-74             
1 42048U 17008DE  17113.93480968  .00014465  00000-0  63633-3 0  9998
2 42048  97.5037 175.4334 0009440  37.6011 322.5883 15.21939077  9445
FLOCK 3P-31             
1 42049U 17008DF  17113.93444747  .00010384  00000-0  45763-3 0  9994
2 42049  97.5016 175.4103 0008931  35.2412 324.9413 15.21963839  8908
FLOCK 3P-83             
1 42050U 17008DG  17113.73698205  .00014348  00000-0  62972-3 0  9999
2 42050  97.5033 175.2345 0009411  37.6563 322.5330 15.22018529 10141
FLOCK 3P-72             
1 42051U 17008DH  17113.66774940  .00015100  00000-0  65832-3 0  9998
2 42051  97.5038 175.1772 0008977  38.3327 321.8545 15.22239603  7720
LEMUR-2-REDFERN-GOES    
1 42059U 98067LA  17113.91001286  .00032137  00000-0  44887-3 0  9990
2 42059  51.6399 308.3546 0008822  96.3771 263.8226 15.56523519  7555
TECHEDSAT 5             
1 42066U 98067LB  17113.89463904  .00186979  00000-0  19940-2 0  9999
2 42066  51.6370 307.4970 0002488 153.2340 206.8783 15.62809754  7291
LEMUR-2-TRUTNA          
1 42067U 98067LC  17113.90276700  .00046598  00000-0  63404-3 0  9995
2 42067  51.6399 308.3052 0008238  97.0806 263.1123 15.57056440  7389
LEMUR-2-AUSTINTACIOUS   
1 42068U 98067LD  17113.91101956  .00035135  00000-0  49068-3 0  9992
2 42068  51.6398 308.3596 0008369  97.2502 262.9441 15.56485590  7484
LEMUR-2-TRUTNAHD        
1 42069U 98067LE  17113.91140280  .00036132  00000-0  50341-3 0  9990
2 42069  51.6401 308.3629 0008219  95.6293 264.5636 15.56537407  7535
